{"fetched_at":"2026-06-10T21:59:53Z","count":1046,"tles":[{"name":"SL-8 R/B","line1":"1 11574U 79089B   26161.06121096  .00000196  00000+0  67049-4 0  9997","line2":"2 11574  74.0695 280.0484 0014864  66.7066 293.5653 14.42400817449428","category":"Other"},{"name":"DMC3-FM1","line1":"1 40715U 15032A   26161.13379878  .00001092  00000+0  13170-3 0  9996","line2":"2 40715  97.6475  26.5855 0007235  77.8636 282.3390 14.85733694588864","category":"Other"},{"name":"KSF2-D","line1":"1 52190U 22033AK  23339.93111212  .15945136  25039-5  34597-3 0  9996","line2":"2 52190  97.3117  69.7664 0010036 278.7108  81.3058 16.46070729 94288","category":"Other"},{"name":"CZ-2C R/B","line1":"1 37731U 11030B   26161.14304565  .00001149  00000+0  15000-3 0  9993","line2":"2 37731  97.8652 116.6566 0053534  50.4870 324.6686 14.81454046803783","category":"Other"},{"name":"DMC3-FM2","line1":"1 40716U 15032B   26161.15587860  .00000175  00000+0  26056-4 0  9990","line2":"2 40716  97.6527  28.1753 0007672  81.5226 278.6859 14.85735295588867","category":"Other"},{"name":"DMC3-FM3","line1":"1 40717U 15032C   26161.17915690  .00000494  00000+0  62808-4 0  9998","line2":"2 40717  97.6577  29.9461 0006819  81.9958 278.2032 14.85724748588877","category":"Other"},{"name":"PROGRESS-MS 31","line1":"1 64751U 25146A   26075.16062931  .00008402  00000+0  16433-3 0  9992","line2":"2 64751  51.6332  40.3661 0006342 195.9803 164.0986 15.48306205554467","category":"Other"},{"name":"SUCHAI-3","line1":"1 52191U 22033AL  24146.50949412  .15429445  25297-5  22962-3 0  9997","line2":"2 52191  97.2978 240.3180 0016695 271.5522  88.3869 16.47492065120493","category":"Other"},{"name":"HAWK-10B","line1":"1 60545U 24149CF  26160.94816262  .00001730  00000+0  15732-3 0  9994","line2":"2 60545  97.6811 236.3461 0006785 113.0613 247.1325 14.96489279 98909","category":"Other"},{"name":"SL-14 R/B","line1":"1 11672U 80005B   26160.87201362  .00000423  00000+0  40107-4 0  9998","line2":"2 11672  82.5145 219.7791 0014851 211.0348 148.9995 14.91023032490225","category":"Other"},{"name":"EOS-6 (OCEANSAT-3)","line1":"1 54361U 22158A   26161.17867178  .00000233  00000+0  76072-4 0  9991","line2":"2 54361  98.3538 259.4659 0001561  56.0794 304.0547 14.46996298186827","category":"Other"},{"name":"CREW DRAGON 11","line1":"1 65077U 25166A   26014.88606923  .00006740  00000+0  12902-3 0  9993","line2":"2 65077  51.6333 338.3791 0007761  18.9639 341.1637 15.49293899547885","category":"Other"},{"name":"CHEOPS","line1":"1 44874U 19092B   26161.03517994  .00000298  00000+0  68906-4 0  9993","line2":"2 44874  98.1506 349.4035 0011699 118.8496 241.3881 14.61960268344853","category":"Other"},{"name":"KEPLER-5 (AMIDALA)","line1":"1 46498U 20068N   23362.31485275  .00024142  00000+0  10426-2 0  9995","line2":"2 46498  97.7833 315.8843 0009015 164.7459 195.4049 15.22464811178588","category":"Other"},{"name":"ZHONGXING-2E","line1":"1 49062U 21071A   26161.07408843 -.00000274  00000+0  00000+0 0  9994","line2":"2 49062   0.0416 241.0127 0001734 243.5446 258.6229  1.00272952 17969","category":"Other"},{"name":"POEM-2","line1":"1 56308U 23057A   26161.06046189  .00002154  00000+0  12895-3 0  9998","line2":"2 56308   9.8892 313.7501 0020687 193.5358 166.4298 14.94964608171193","category":"Other"},{"name":"CZ-4B R/B","line1":"1 28059U 03049C   26161.01104082  .00000278  00000+0  75380-4 0  9995","line2":"2 28059  98.6896 159.5719 0047205 310.9930  48.7187 14.55095405200029","category":"Other"},{"name":"LEMUR-2-ROMEO-N-LEO","line1":"1 56206U 23054AE  23362.26012610  .00074867  00000+0  13789-2 0  9998","line2":"2 56206  97.3705 257.5910 0009466  41.7914 318.4058 15.48856577 39964","category":"Other"},{"name":"ISIS 1","line1":"1 03669U 69009A   26160.66832698  .00000072  00000+0  53576-4 0  9999","line2":"2 03669  88.4420 145.2259 1706021 263.4230  77.0700 11.30432892358928","category":"Other"},{"name":"LUMELITE-4","line1":"1 56309U 23057B   26161.09143854  .00011068  00000+0  43224-3 0  9993","line2":"2 56309   9.9917 114.1753 0004849 346.1781  13.8302 15.21878722172973","category":"Other"},{"name":"LEMUR-2-RUAIRI-EILIDH","line1":"1 47511U 21006DC  24079.15958557  .03793794  24067-5  16223-2 0  9996","line2":"2 47511  97.3265 148.8974 0012278 265.3842  94.6046 16.22611763175482","category":"Other"},{"name":"ELECTRON KICK STAGE R/B","line1":"1 57694U 23126B   23265.41277972  .00003108  00000+0  48220-3 0  9992","line2":"2 57694  53.0119 163.9829 0010179  12.7031 347.4199 14.75618947  4342","category":"Other"},{"name":"HAWK-C","line1":"1 43799U 18099AT  26160.59709099  .00006624  00000+0  23990-3 0  9995","line2":"2 43799  97.3896 213.8073 0039117 313.8174  45.9833 15.27997144412758","category":"Other"},{"name":"CHOMPTT","line1":"1 43855U 18104G   24134.10951713  .07815800 -14920-5  72575-3 0  9990","line2":"2 43855  84.9879 294.4476 0011122 263.9277  96.0761 16.38682570302102","category":"Other"},{"name":"FLOCK 4S-9","line1":"1 47478U 21006BT  23361.74354489  .00025783  00000+0  70399-3 0  9993","line2":"2 47478  97.3597  59.4089 0005756 114.3364 245.8483 15.37382996162367","category":"Other"},{"name":"CAPELLA-8-WHITNEY","line1":"1 51071U 22002CR  23249.06545155  .35393296  25458-5  30023-2 0  9990","line2":"2 51071  97.4006 322.5782 0015575 273.5387 175.0653 16.38892911 91532","category":"Other"},{"name":"SARAL","line1":"1 39086U 13009A   26161.12767088  .00000081  00000+0  45626-4 0  9999","line2":"2 39086  98.5558 347.7845 0001090 345.3468  14.7684 14.32854182694590","category":"Other"},{"name":"SL-3 R/B","line1":"1 13068U 82013B   26161.12597543  .00003026  00000+0  12784-3 0  9999","line2":"2 13068  81.1747  52.3457 0020929 225.4757 134.4766 15.22742554418414","category":"Other"},{"name":"CLOUDSAT","line1":"1 29107U 06016A   26105.13731005  .00000553  00000+0  69798-4 0  9991","line2":"2 29107  98.3993 138.9195 0005614 162.8073 197.3331 14.86266098 65144","category":"Other"},{"name":"CZ-4B R/B","line1":"1 25732U 99025C   26161.08189421  .00000045  00000+0  42297-4 0  9999","line2":"2 25732  98.6485 203.0990 0038236  79.5153 334.3645 14.18282261401262","category":"Other"},{"name":"BEIJING-3B","line1":"1 53587U 22103A   26161.21910834  .00001060  00000+0  12324-3 0  9991","line2":"2 53587  97.8012 238.7534 0026299  78.1265 282.2898 14.87175890206058","category":"Other"},{"name":"SAOCOM 1A","line1":"1 43641U 18076A   26161.18241912 -.00000277  00000+0 -28208-4 0  9995","line2":"2 43641  97.8889 348.0332 0001477  77.2166 282.9212 14.82167506415062","category":"Other"},{"name":"RESOURCESAT-2","line1":"1 37387U 11015A   26161.12112618  .00000043  00000+0  39809-4 0  9993","line2":"2 37387  98.7644 228.6115 0010125 278.3034  81.6995 14.21604883785172","category":"Other"},{"name":"ARKSAT 1","line1":"1 56311U 98067VC  23303.05538678  .07312704  12314-4  10515-2 0  9992","line2":"2 56311  51.6117 356.0759 0005639 345.2720  14.8139 16.33903982 29584","category":"Other"},{"name":"AURORASAT","line1":"1 56312U 98067VD  23282.89304496  .12991929  12502-4  61553-3 0  9996","line2":"2 56312  51.6111  98.4271 0008089 283.5840  76.4286 16.42584726 26455","category":"Other"},{"name":"SOYUZ-MS 27","line1":"1 63520U 25072A   25342.54239145  .00012445  00000+0  23028-3 0  9994","line2":"2 63520  51.6307 163.2617 0003393 220.7658 139.3077 15.49420853 20209","category":"Other"},{"name":"HADES","line1":"1 51080U 22002DA  23361.46352837  .00061090  00000+0  13253-2 0  9994","line2":"2 51080  97.4382  74.2272 0006731 292.5054  67.5481 15.44163905108544","category":"Other"},{"name":"FOSSASAT-2E3","line1":"1 50990U 22002G   23251.84180079  .09150295  24413-5  27290-2 0  9991","line2":"2 50990  97.3351 329.6967 0016744 284.4245  75.5189 16.26701966 92297","category":"Other"},{"name":"HXMT (HUIYAN)","line1":"1 42758U 17034A   26161.16172465  .00004230  00000+0  21100-3 0  9994","line2":"2 42758  43.0133 222.1601 0030188 100.8080 259.6168 15.18430528496590","category":"Other"},{"name":"EASAT-2","line1":"1 51081U 22002DB  23361.99504785  .00057714  00000+0  12258-2 0  9996","line2":"2 51081  97.4367  74.8150 0006787 288.8526  71.1986 15.44806084108635","category":"Other"},{"name":"FLOCK 4E'-1","line1":"1 46813U 20077A   23302.14587811  .00276166  00000+0  24305-2 0  9996","line2":"2 46813  97.3442  10.8172 0003117  36.0675 324.0796 15.67905174166987","category":"Other"},{"name":"RESOURCESAT-2A","line1":"1 41877U 16074A   26161.17334417  .00000245  00000+0  13176-3 0  9992","line2":"2 41877  98.7523 234.7348 0003356  97.2886 262.8673 14.21614950493307","category":"Other"},{"name":"SL-8 R/B","line1":"1 19257U 88053B   26160.85428078  .00000190  00000+0  70050-4 0  9990","line2":"2 19257  74.0479 302.5744 0019189 100.6419   9.7037 14.38964783989859","category":"Other"},{"name":"COSMOS 2542","line1":"1 44797U 19079A   23297.23228983  .16154547  26690-5  82721-3 0  9991","line2":"2 44797  97.6189  44.3452 0008269 277.8821 166.3779 16.42095543216406","category":"Other"},{"name":"GSAT0202 (GALILEO 6)","line1":"1 40129U 14050B   26160.58770951 -.00000052  00000+0  00000+0 0  9999","line2":"2 40129  48.9007 272.8335 1674676 179.8278 180.2807  1.85520607 80340","category":"GPS"},{"name":"GAOFEN-6","line1":"1 43484U 18048A   26160.07493644  .00000804  00000+0  12207-3 0  9992","line2":"2 43484  97.7757 223.0567 0011378 194.8499 165.2379 14.76624229432191","category":"Other"},{"name":"HJ-2A","line1":"1 46478U 20067A   26160.03299753  .00000302  00000+0  50437-4 0  9994","line2":"2 46478  97.8822 238.5982 0002212 312.3940  47.7082 14.76600903307052","category":"Other"},{"name":"METEOR PRIRODA","line1":"1 12585U 81065A   25323.79819012  .05427087  25897-5  43530-3 0  9990","line2":"2 12585  97.4523  29.5356 0007881 258.0011 102.0405 16.40029458427132","category":"Weather"},{"name":"SL-8 R/B","line1":"1 02802U 67045B   26161.02746809  .00000202  00000+0  63528-4 0  9997","line2":"2 02802  74.0092 175.6310 0063717 161.8607 198.4846 14.45679186102365","category":"Other"}]}